[{"OBJECT_NAME":"TIANQI-24","OBJECT_ID":"2023-135D","EPOCH":"2026-03-09T20:57:37.180800","MEAN_MOTION":14.23089643,"ECCENTRICITY":0.00134171,"INCLINATION":49.9722,"RA_OF_ASC_NODE":210.6392,"ARG_OF_PERICENTER":273.0428,"MEAN_ANOMALY":86.8949,"EPHEMERIS_TYPE":0,"CLASSIFICATION_TYPE":"U","NORAD_CAT_ID":57795,"ELEMENT_SET_NO":999,"REV_AT_EPOCH":13048,"BSTAR":0.00014051861,"MEAN_MOTION_DOT":1.6e-6,"MEAN_MOTION_DDOT":0},{"OBJECT_NAME":"CZ-6A DEB","OBJECT_ID":"2022-151PP","EPOCH":"2026-03-09T13:37:52.150944","MEAN_MOTION":14.1873163,"ECCENTRICITY":0.006002,"INCLINATION":98.8404,"RA_OF_ASC_NODE":74.765,"ARG_OF_PERICENTER":266.7207,"MEAN_ANOMALY":92.7101,"EPHEMERIS_TYPE":0,"CLASSIFICATION_TYPE":"U","NORAD_CAT_ID":54637,"ELEMENT_SET_NO":999,"REV_AT_EPOCH":16990,"BSTAR":0.0023186,"MEAN_MOTION_DOT":4.859e-5,"MEAN_MOTION_DDOT":0}]
